OBJECT_NAME,OBJECT_ID,EPOCH,MEAN_MOTION,ECCENTRICITY,INCLINATION,RA_OF_ASC_NODE,ARG_OF_PERICENTER,MEAN_ANOMALY,EPHEMERIS_TYPE,CLASSIFICATION_TYPE,NORAD_CAT_ID,ELEMENT_SET_NO,REV_AT_EPOCH,BSTAR,MEAN_MOTION_DOT,MEAN_MOTION_DDOT
ONEWEB-0294,2021-075J,2025-02-16T20:25:40.583424,13.12442353,.0002264,87.8815,87.2809,83.5634,276.5752,0,U,49083,999,17190,.77701E-3,.292E-5,0
ONEWEB-0295,2021-075K,2025-02-16T21:06:45.758592,13.17649466,.0001742,87.9047,102.5540,88.0857,272.0474,0,U,49084,999,17064,.26178E-3,.115E-5,0
ONEWEB-0296,2021-075L,2025-02-16T19:57:37.532160,13.12442447,.0001894,87.8817,87.2905,75.5775,284.5564,0,U,49085,999,17091,-.10605E-2,-.369E-5,0
ONEWEB-0298,2021-075N,2025-02-16T21:13:00.806304,13.17650458,.0001677,87.9048,102.5700,98.9573,261.1748,0,U,49087,999,17070,.22064E-3,.99E-6,0
ONEWEB-0299,2021-075P,2025-02-16T21:15:14.066208,13.17648291,.0001658,87.9041,102.5284,98.9047,261.2272,0,U,49088,999,17066,-.7203E-3,-.267E-5,0
ONEWEB-0300,2021-075Q,2025-02-16T20:30:20.367360,13.12441660,.0001879,87.8814,87.2784,107.1292,253.0042,0,U,49089,999,17253,.10016E-2,.373E-5,0
ONEWEB-0301,2021-075R,2025-02-16T20:06:58.802976,13.12443177,.0001915,87.8813,87.2866,106.1946,253.9394,0,U,49090,999,17090,-.47224E-3,-.157E-5,0
ONEWEB-0302,2021-075S,2025-02-16T19:48:17.241984,13.12441279,.0002129,87.8816,87.2891,85.4644,274.6727,0,U,49091,999,17088,-.11916E-2,-.416E-5,0
ONEWEB-0304,2021-075T,2025-02-16T20:38:48.770016,13.17651117,.00018,87.9046,102.5589,94.4864,265.6473,0,U,49092,999,17064,.94742E-4,.5E-6,0
ONEWEB-0305,2021-075U,2025-02-16T20:29:04.052832,13.17651695,.0001501,87.9045,102.5410,91.4007,268.7297,0,U,49093,999,16969,.12762E-3,.62E-6,0
ONEWEB-0308,2021-075V,2025-02-16T19:38:55.827744,13.12440586,.0001909,87.8815,87.2870,98.1340,262.0005,0,U,49094,999,17089,-.86521E-3,-.299E-5,0
ONEWEB-0309,2021-075W,2025-02-16T20:33:57.309120,13.17649741,.0002276,87.9048,102.5526,88.6852,271.4540,0,U,49095,999,16966,.40957E-4,.29E-6,0
ONEWEB-0311,2021-075Y,2025-02-16T20:43:40.384704,13.17649946,.0001518,87.9046,102.5525,94.5791,265.5514,0,U,49097,999,16971,.13009E-3,.63E-6,0
ONEWEB-0312,2021-075Z,2025-02-16T21:05:31.093440,13.17650426,.0001815,87.9047,102.5808,85.8747,274.2592,0,U,49098,999,16969,.48762E-4,.32E-6,0
ONEWEB-0313,2021-075AA,2025-02-16T21:12:38.500416,13.17649608,.0001793,87.9047,102.5955,91.8818,268.2519,0,U,49099,999,16968,.58795E-4,.36E-6,0
ONEWEB-0314,2021-075AB,2025-02-16T20:24:13.055040,13.17654911,.0001743,87.9046,102.5381,84.7223,275.4107,0,U,49100,999,16965,-.94879E-5,.9E-7,0
ONEWEB-0315,2021-075AC,2025-02-16T19:22:35.318208,13.12439893,.0001472,87.8814,87.2808,97.7524,262.3772,0,U,49101,999,17150,-.16301E-3,-.46E-6,0
ONEWEB-0317,2021-075AE,2025-02-17T02:32:23.935776,13.12442004,.0002389,87.8815,87.2346,99.5246,260.6152,0,U,49103,999,17255,.68774E-3,.26E-5,0
ONEWEB-0319,2021-075AG,2025-02-16T20:46:04.797984,13.17650826,.000145,87.9047,102.5773,92.8668,267.2629,0,U,49105,999,16969,.86026E-4,.46E-6,0
ONEWEB-0323,2021-075AH,2025-02-16T20:49:01.805664,13.12441371,.0001201,87.8815,87.2685,83.3391,276.7875,0,U,49106,999,17089,.11938E-2,.442E-5,0
ONEWEB-0329,2021-075AJ,2025-02-16T15:30:11.171232,13.17650793,.0001787,87.9049,102.6256,93.6777,266.4558,0,U,49107,999,16964,-.10225E-5,.12E-6,0
ONEWEB-0330,2021-075AK,2025-02-16T21:00:40.536288,13.17648023,.0001939,87.9046,102.5817,91.5118,268.6236,0,U,49108,999,16971,.64388E-4,.38E-6,0
