ONEWEB-0294             
1 49083U 21075J   25047.85116416  .00000292  00000+0  77701-3 0  9996
2 49083  87.8815  87.2809 0002264  83.5634 276.5752 13.12442353171900
ONEWEB-0295             
1 49084U 21075K   25047.87969628  .00000115  00000+0  26178-3 0  9996
2 49084  87.9047 102.5540 0001742  88.0857 272.0474 13.17649466170640
ONEWEB-0296             
1 49085U 21075L   25047.83168440 -.00000369  00000+0 -10605-2 0  9996
2 49085  87.8817  87.2905 0001894  75.5775 284.5564 13.12442447170910
ONEWEB-0298             
1 49087U 21075N   25047.88403711  .00000099  00000+0  22064-3 0  9997
2 49087  87.9048 102.5700 0001677  98.9573 261.1748 13.17650458170707
ONEWEB-0299             
1 49088U 21075P   25047.88557947 -.00000267  00000+0 -72030-3 0  9996
2 49088  87.9041 102.5284 0001658  98.9047 261.2272 13.17648291170663
ONEWEB-0300             
1 49089U 21075Q   25047.85440240  .00000373  00000+0  10016-2 0  9992
2 49089  87.8814  87.2784 0001879 107.1292 253.0042 13.12441660172533
ONEWEB-0301             
1 49090U 21075R   25047.83818059 -.00000157  00000+0 -47224-3 0  9993
2 49090  87.8813  87.2866 0001915 106.1946 253.9394 13.12443177170904
ONEWEB-0302             
1 49091U 21075S   25047.82519956 -.00000416  00000+0 -11916-2 0  9993
2 49091  87.8816  87.2891 0002129  85.4644 274.6727 13.12441279170886
ONEWEB-0304             
1 49092U 21075T   25047.86028669  .00000050  00000+0  94742-4 0  9996
2 49092  87.9046 102.5589 0001800  94.4864 265.6473 13.17651117170648
ONEWEB-0305             
1 49093U 21075U   25047.85351913  .00000062  00000+0  12762-3 0  9991
2 49093  87.9045 102.5410 0001501  91.4007 268.7297 13.17651695169697
ONEWEB-0308             
1 49094U 21075V   25047.81870171 -.00000299  00000+0 -86521-3 0  9998
2 49094  87.8815  87.2870 0001909  98.1340 262.0005 13.12440586170895
ONEWEB-0309             
1 49095U 21075W   25047.85691330  .00000029  00000+0  40957-4 0  9994
2 49095  87.9048 102.5526 0002276  88.6852 271.4540 13.17649741169664
ONEWEB-0311             
1 49097U 21075Y   25047.86366186  .00000063  00000+0  13009-3 0  9990
2 49097  87.9046 102.5525 0001518  94.5791 265.5514 13.17649946169717
ONEWEB-0312             
1 49098U 21075Z   25047.87883210  .00000032  00000+0  48762-4 0  9995
2 49098  87.9047 102.5808 0001815  85.8747 274.2592 13.17650426169692
ONEWEB-0313             
1 49099U 21075AA  25047.88377894  .00000036  00000+0  58795-4 0  9994
2 49099  87.9047 102.5955 0001793  91.8818 268.2519 13.17649608169688
ONEWEB-0314             
1 49100U 21075AB  25047.85015110  .00000009  00000+0 -94879-5 0  9999
2 49100  87.9046 102.5381 0001743  84.7223 275.4107 13.17654911169652
ONEWEB-0315             
1 49101U 21075AC  25047.80735322 -.00000046  00000+0 -16301-3 0  9993
2 49101  87.8814  87.2808 0001472  97.7524 262.3772 13.12439893171500
ONEWEB-0317             
1 49103U 21075AE  25048.10583259  .00000260  00000+0  68774-3 0  9996
2 49103  87.8815  87.2346 0002389  99.5246 260.6152 13.12442004172556
ONEWEB-0319             
1 49105U 21075AG  25047.86533331  .00000046  00000+0  86026-4 0  9999
2 49105  87.9047 102.5773 0001450  92.8668 267.2629 13.17650826169694
ONEWEB-0323             
1 49106U 21075AH  25047.86738201  .00000442  00000+0  11938-2 0  9991
2 49106  87.8815  87.2685 0001201  83.3391 276.7875 13.12441371170890
ONEWEB-0329             
1 49107U 21075AJ  25047.64596263  .00000012  00000+0 -10225-5 0  9993
2 49107  87.9049 102.6256 0001787  93.6777 266.4558 13.17650793169648
ONEWEB-0330             
1 49108U 21075AK  25047.87546917  .00000038  00000+0  64388-4 0  9995
2 49108  87.9046 102.5817 0001939  91.5118 268.6236 13.17648023169711
